{
  "type": "FeatureCollection",
  "features": [
    {
      "type": "Feature",
      "properties": {
        "norad_id": 67075,
        "name": "STARLINK-36230",
        "group": "last-30-days",
        "lat": -51.27816595750562,
        "lon": -165.53853701227408,
        "alt_km": 310.15468735846207,
        "timestamp": "2025-12-22T18:58:52.142138+00:00",
        "meta_object_name": "STARLINK-36230",
        "meta_object_id": "2025-298A",
        "meta_epoch": "2025-12-22T06:00:02.000160",
        "meta_mean_motion": 15.8861474,
        "meta_eccentricity": 0.00044805,
        "meta_inclination": 69.9973,
        "meta_ra_of_asc_node": 223.0475,
        "meta_arg_of_pericenter": 270.089,
        "meta_mean_anomaly": 181.628,
        "meta_ephemeris_type": 0,
        "meta_classification_type": "U",
        "meta_norad_cat_id": 67075,
        "meta_element_set_no": 999,
        "meta_rev_at_epoch": 250,
        "meta_bstar": -0.00010438123,
        "meta_mean_motion_dot": -0.00029463,
        "meta_mean_motion_ddot": 0,
        "tle_line1": "1 67075U 25298A   25356.25002315 -.00029463  00000+0 -10438-3 0  9994",
        "tle_line2": "2 67075  69.9973 223.0475 0004480 270.0890 181.6280 15.88614740  2502"
      },
      "geometry": {
        "type": "Point",
        "coordinates": [
          -165.53853701227408,
          -51.27816595750562
        ]
      }
    },
    {
      "type": "Feature",
      "properties": {
        "norad_id": 67076,
        "name": "STARLINK-36240",
        "group": "last-30-days",
        "lat": -49.6970879358571,
        "lon": -163.95377497724024,
        "alt_km": 310.1254934966655,
        "timestamp": "2025-12-22T18:58:52.142148+00:00",
        "meta_object_name": "STARLINK-36240",
        "meta_object_id": "2025-298B",
        "meta_epoch": "2025-12-22T06:00:02.000160",
        "meta_mean_motion": 15.88660468,
        "meta_eccentricity": 0.00045447,
        "meta_inclination": 69.9975,
        "meta_ra_of_asc_node": 223.0453,
        "meta_arg_of_pericenter": 265.6375,
        "meta_mean_anomaly": 187.8549,
        "meta_ephemeris_type": 0,
        "meta_classification_type": "U",
        "meta_norad_cat_id": 67076,
        "meta_element_set_no": 999,
        "meta_rev_at_epoch": 250,
        "meta_bstar": -7.0352052e-05,
        "meta_mean_motion_dot": -0.00020018,
        "meta_mean_motion_ddot": 0,
        "tle_line1": "1 67076U 25298B   25356.25002315 -.00020018  00000+0 -70352-4 0  9994",
        "tle_line2": "2 67076  69.9975 223.0453 0004544 265.6375 187.8549 15.88660468  2504"
      },
      "geometry": {
        "type": "Point",
        "coordinates": [
          -163.95377497724024,
          -49.6970879358571
        ]
      }
    },
    {
      "type": "Feature",
      "properties": {
        "norad_id": 67077,
        "name": "STARLINK-36243",
        "group": "last-30-days",
        "lat": -46.50644425917546,
        "lon": -161.10184722944828,
        "alt_km": 307.2014639655008,
        "timestamp": "2025-12-22T18:58:52.142158+00:00",
        "meta_object_name": "STARLINK-36243",
        "meta_object_id": "2025-298C",
        "meta_epoch": "2025-12-22T06:00:02.000160",
        "meta_mean_motion": 15.8912425,
        "meta_eccentricity": 0.00044492,
        "meta_inclination": 69.9973,
        "meta_ra_of_asc_node": 223.0423,
        "meta_arg_of_pericenter": 270.7592,
        "meta_mean_anomaly": 185.0441,
        "meta_ephemeris_type": 0,
        "meta_classification_type": "U",
        "meta_norad_cat_id": 67077,
        "meta_element_set_no": 999,
        "meta_rev_at_epoch": 250,
        "meta_bstar": 0.0016057976,
        "meta_mean_motion_dot": 0.00460086,
        "meta_mean_motion_ddot": 8.2682966e-05,
        "tle_line1": "1 67077U 25298C   25356.25002315  .00460086  82683-4  16058-2 0  9999",
        "tle_line2": "2 67077  69.9973 223.0423 0004449 270.7592 185.0441 15.89124250  2508"
      },
      "geometry": {
        "type": "Point",
        "coordinates": [
          -161.10184722944828,
          -46.50644425917546
        ]
      }
    },
    {
      "type": "Feature",
      "properties": {
        "norad_id": 67078,
        "name": "STARLINK-36236",
        "group": "last-30-days",
        "lat": -46.29370050952834,
        "lon": -160.92548619428382,
        "alt_km": 309.69763147033154,
        "timestamp": "2025-12-22T18:58:52.142169+00:00",
        "meta_object_name": "STARLINK-36236",
        "meta_object_id": "2025-298D",
        "meta_epoch": "2025-12-22T06:00:02.000160",
        "meta_mean_motion": 15.88762286,
        "meta_eccentricity": 0.00046471,
        "meta_inclination": 69.9974,
        "meta_ra_of_asc_node": 223.0407,
        "meta_arg_of_pericenter": 269.3472,
        "meta_mean_anomaly": 187.9161,
        "meta_ephemeris_type": 0,
        "meta_classification_type": "U",
        "meta_norad_cat_id": 67078,
        "meta_element_set_no": 999,
        "meta_rev_at_epoch": 250,
        "meta_bstar": -7.4229779e-05,
        "meta_mean_motion_dot": -0.0002121,
        "meta_mean_motion_ddot": 0,
        "tle_line1": "1 67078U 25298D   25356.25002315 -.00021210  00000+0 -74230-4 0  9990",
        "tle_line2": "2 67078  69.9974 223.0407 0004647 269.3472 187.9161 15.88762286  2509"
      },
      "geometry": {
        "type": "Point",
        "coordinates": [
          -160.92548619428382,
          -46.29370050952834
        ]
      }
    },
    {
      "type": "Feature",
      "properties": {
        "norad_id": 67079,
        "name": "STARLINK-36159",
        "group": "last-30-days",
        "lat": -44.313500938467115,
        "lon": -159.3586771668743,
        "alt_km": 309.6145535710875,
        "timestamp": "2025-12-22T18:58:52.142181+00:00",
        "meta_object_name": "STARLINK-36159",
        "meta_object_id": "2025-298E",
        "meta_epoch": "2025-12-22T06:00:02.000160",
        "meta_mean_motion": 15.88824402,
        "meta_eccentricity": 0.00045634,
        "meta_inclination": 69.9975,
        "meta_ra_of_asc_node": 223.0383,
        "meta_arg_of_pericenter": 269.3968,
        "meta_mean_anomaly": 190.028,
        "meta_ephemeris_type": 0,
        "meta_classification_type": "U",
        "meta_norad_cat_id": 67079,
        "meta_element_set_no": 999,
        "meta_rev_at_epoch": 250,
        "meta_bstar": -0.00011620374,
        "meta_mean_motion_dot": -0.00033097,
        "meta_mean_motion_ddot": 0,
        "tle_line1": "1 67079U 25298E   25356.25002315 -.00033097  00000+0 -11620-3 0  9990",
        "tle_line2": "2 67079  69.9975 223.0383 0004563 269.3968 190.0280 15.88824402  2507"
      },
      "geometry": {
        "type": "Point",
        "coordinates": [
          -159.3586771668743,
          -44.313500938467115
        ]
      }
    },
    {
      "type": "Feature",
      "properties": {
        "norad_id": 67080,
        "name": "STARLINK-36158",
        "group": "last-30-days",
        "lat": -42.4738287742229,
        "lon": -158.00853639374594,
        "alt_km": 309.9376424671773,
        "timestamp": "2025-12-22T18:58:52.142191+00:00",
        "meta_object_name": "STARLINK-36158",
        "meta_object_id": "2025-298F",
        "meta_epoch": "2025-12-22T06:00:02.000160",
        "meta_mean_motion": 15.88839367,
        "meta_eccentricity": 0.00040159,
        "meta_inclination": 69.9974,
        "meta_ra_of_asc_node": 223.036,
        "meta_arg_of_pericenter": 274.2165,
        "meta_mean_anomaly": 187.3598,
        "meta_ephemeris_type": 0,
        "meta_classification_type": "U",
        "meta_norad_cat_id": 67080,
        "meta_element_set_no": 999,
        "meta_rev_at_epoch": 244,
        "meta_bstar": -0.00040416139,
        "meta_mean_motion_dot": -0.00113451,
        "meta_mean_motion_ddot": 0,
        "tle_line1": "1 67080U 25298F   25356.25002315 -.00113451  00000+0 -40416-3 0  9990",
        "tle_line2": "2 67080  69.9974 223.0360 0004015 274.2165 187.3598 15.88839367  2449"
      },
      "geometry": {
        "type": "Point",
        "coordinates": [
          -158.00853639374594,
          -42.4738287742229
        ]
      }
    },
    {
      "type": "Feature",
      "properties": {
        "norad_id": 67081,
        "name": "STARLINK-35864",
        "group": "last-30-days",
        "lat": -40.754120083155456,
        "lon": -156.8256421640524,
        "alt_km": 309.81998506461696,
        "timestamp": "2025-12-22T18:58:52.142201+00:00",
        "meta_object_name": "STARLINK-35864",
        "meta_object_id": "2025-298G",
        "meta_epoch": "2025-12-22T06:00:02.000160",
        "meta_mean_motion": 15.88911844,
        "meta_eccentricity": 0.0003944,
        "meta_inclination": 69.9976,
        "meta_ra_of_asc_node": 223.0339,
        "meta_arg_of_pericenter": 275.4558,
        "meta_mean_anomaly": 187.9503,
        "meta_ephemeris_type": 0,
        "meta_classification_type": "U",
        "meta_norad_cat_id": 67081,
        "meta_element_set_no": 999,
        "meta_rev_at_epoch": 250,
        "meta_bstar": -0.00051429877,
        "meta_mean_motion_dot": -0.00144319,
        "meta_mean_motion_ddot": 0,
        "tle_line1": "1 67081U 25298G   25356.25002315 -.00144319  00000+0 -51430-3 0  9996",
        "tle_line2": "2 67081  69.9976 223.0339 0003944 275.4558 187.9503 15.88911844  2507"
      },
      "geometry": {
        "type": "Point",
        "coordinates": [
          -156.8256421640524,
          -40.754120083155456
        ]
      }
    }
  ]
}